{"type": "FeatureCollection", "features": [ {"type": "Feature", "properties": {"norad_id": 36437, "name": "COSMOS 2251 DEB", "group": "cosmos-2251-debris", "lat": 71.83942850529583, "lon": 149.34390905700732, "alt_km": 666.9919184981163, "timestamp": "2025-12-14T09:36:23.435385+00:00", "meta": {"OBJECT_NAME": "COSMOS 2251 DEB", "OBJECT_ID": "1993-036BAL", "EPOCH": "2025-12-12T21:14:34.610784", "MEAN_MOTION": 14.70699745, "ECCENTRICITY": 0.00231229, "INCLINATION": 73.942, "RA_OF_ASC_NODE": 33.7138, "ARG_OF_PERICENTER": 265.0024, "MEAN_ANOMALY": 94.8507, "EPHEMERIS_TYPE": 0, "CLASSIFICATION_TYPE": "U", "NORAD_CAT_ID": 36437, "ELEMENT_SET_NO": 999, "REV_AT_EPOCH": 66053, "BSTAR": 0.0021741293, "MEAN_MOTION_DOT": 0.00013297, "MEAN_MOTION_DDOT": 0}, "tle": {"line1": "1 36437U 93036BAL 25346.88512281  .00013297  00000+0  21741-2 0  9997", "line2": "2 36437  73.9420  33.7138 0023122 265.0024  94.8507 14.70699745660539"}}, "geometry": {"type": "Point", "coordinates": [149.34390905700732, 71.83942850529583]}}, {"type": "Feature", "properties": {"norad_id": 36439, "name": "COSMOS 2251 DEB", "group": "cosmos-2251-debris", "lat": 12.467949820027068, "lon": 37.71250630025662, "alt_km": 764.5558497558095, "timestamp": "2025-12-14T09:36:23.435395+00:00", "meta": {"OBJECT_NAME": "COSMOS 2251 DEB", "OBJECT_ID": "1993-036BAN", "EPOCH": "2025-12-11T12:04:38.629632", "MEAN_MOTION": 13.47792153, "ECCENTRICITY": 0.04277143, "INCLINATION": 73.9683, "RA_OF_ASC_NODE": 38.6892, "ARG_OF_PERICENTER": 10.8049, "MEAN_ANOMALY": 350.189, "EPHEMERIS_TYPE": 0, "CLASSIFICATION_TYPE": "U", "NORAD_CAT_ID": 36439, "ELEMENT_SET_NO": 999, "REV_AT_EPOCH": 58596, "BSTAR": 0.0014143946, "MEAN_MOTION_DOT": 1.502e-05, "MEAN_MOTION_DDOT": 0}, "tle": {"line1": "1 36439U 93036BAN 25345.50322488  .00001502  00000+0  14144-2 0  9990", "line2": "2 36439  73.9683  38.6892 0427714  10.8049 350.1890 13.47792153585967"}}, "geometry": {"type": "Point", "coordinates": [37.71250630025662, 12.467949820027068]}}, {"type": "Feature", "properties": {"norad_id": 36441, "name": "COSMOS 2251 DEB", "group": "cosmos-2251-debris", "lat": 50.486458378278165, "lon": 6.893635534901459, "alt_km": 476.7618125326371, "timestamp": "2025-12-14T09:36:23.435405+00:00", "meta": {"OBJECT_NAME": "COSMOS 2251 DEB", "OBJECT_ID": "1993-036BAQ", "EPOCH": "2025-12-12T17:32:09.773088", "MEAN_MOTION": 15.06765152, "ECCENTRICITY": 0.01085376, "INCLINATION": 73.8352, "RA_OF_ASC_NODE": 349.7725, "ARG_OF_PERICENTER": 88.8842, "MEAN_ANOMALY": 272.478, "EPHEMERIS_TYPE": 0, "CLASSIFICATION_TYPE": "U", "NORAD_CAT_ID": 36441, "ELEMENT_SET_NO": 999, "REV_AT_EPOCH": 86965, "BSTAR": 0.00060236622, "MEAN_MOTION_DOT": 0.00010226, "MEAN_MOTION_DDOT": 0}, "tle": {"line1": "1 36441U 93036BAQ 25346.73066867  .00010226  00000+0  60237-3 0  9993", "line2": "2 36441  73.8352 349.7725 0108537  88.8842 272.4780 15.06765152869659"}}, "geometry": {"type": "Point", "coordinates": [6.893635534901459, 50.486458378278165]}}, {"type": "Feature", "properties": {"norad_id": 36442, "name": "COSMOS 2251 DEB", "group": "cosmos-2251-debris", "lat": -28.77560492138951, "lon": 26.628202267030225, "alt_km": 476.66012415919977, "timestamp": "2025-12-14T09:36:23.435415+00:00", "meta": {"OBJECT_NAME": "COSMOS 2251 DEB", "OBJECT_ID": "1993-036BAR", "EPOCH": "2025-12-08T10:48:39.469248", "MEAN_MOTION": 15.27762018, "ECCENTRICITY": 0.00088131, "INCLINATION": 73.9528, "RA_OF_ASC_NODE": 48.4206, "ARG_OF_PERICENTER": 323.6974, "MEAN_ANOMALY": 36.3628, "EPHEMERIS_TYPE": 0, "CLASSIFICATION_TYPE": "U", "NORAD_CAT_ID": 36442, "ELEMENT_SET_NO": 999, "REV_AT_EPOCH": 85850, "BSTAR": 0.005804433, "MEAN_MOTION_DOT": 0.00161056, "MEAN_MOTION_DDOT": 0}, "tle": {"line1": "1 36442U 93036BAR 25342.45045682  .00161056  00000+0  58044-2 0  9991", "line2": "2 36442  73.9528  48.4206 0008813 323.6974  36.3628 15.27762018858506"}}, "geometry": {"type": "Point", "coordinates": [26.628202267030225, -28.77560492138951]}}, {"type": "Feature", "properties": {"norad_id": 36451, "name": "COSMOS 2251 DEB", "group": "cosmos-2251-debris", "lat": -73.04661620472098, "lon": -98.50419413050902, "alt_km": 899.2387741865541, "timestamp": "2025-12-14T09:36:23.435425+00:00", "meta": {"OBJECT_NAME": "COSMOS 2251 DEB", "OBJECT_ID": "1993-036BBA", "EPOCH": "2025-12-08T10:10:07.447584", "MEAN_MOTION": 14.18724413, "ECCENTRICITY": 0.01840749, "INCLINATION": 73.9539, "RA_OF_ASC_NODE": 342.9701, "ARG_OF_PERICENTER": 168.3937, "MEAN_ANOMALY": 192.1542, "EPHEMERIS_TYPE": 0, "CLASSIFICATION_TYPE": "U", "NORAD_CAT_ID": 36451, "ELEMENT_SET_NO": 999, "REV_AT_EPOCH": 84164, "BSTAR": 0.0010726423, "MEAN_MOTION_DOT": 2.61e-05, "MEAN_MOTION_DDOT": 0}, "tle": {"line1": "1 36451U 93036BBA 25342.42369731  .00002610  00000+0  10726-2 0  9997", "line2": "2 36451  73.9539 342.9701 0184074 168.3937 192.1542 14.18724413841646"}}, "geometry": {"type": "Point", "coordinates": [-98.50419413050902, -73.04661620472098]}}, {"type": "Feature", "properties": {"norad_id": 36453, "name": "COSMOS 2251 DEB", "group": "cosmos-2251-debris", "lat": 8.976357903278831, "lon": 151.84618175036874, "alt_km": 681.6072383257078, "timestamp": "2025-12-14T09:36:23.435435+00:00", "meta": {"OBJECT_NAME": "COSMOS 2251 DEB", "OBJECT_ID": "1993-036BBC", "EPOCH": "2025-12-12T21:52:59.987424", "MEAN_MOTION": 14.52610543, "ECCENTRICITY": 0.00703534, "INCLINATION": 73.9231, "RA_OF_ASC_NODE": 152.0605, "ARG_OF_PERICENTER": 55.2951, "MEAN_ANOMALY": 94.0345, "EPHEMERIS_TYPE": 0, "CLASSIFICATION_TYPE": "U", "NORAD_CAT_ID": 36453, "ELEMENT_SET_NO": 999, "REV_AT_EPOCH": 84470, "BSTAR": 0.0013423006, "MEAN_MOTION_DOT": 5.65e-05, "MEAN_MOTION_DDOT": 0}, "tle": {"line1": "1 36453U 93036BBC 25346.91180541  .00005650  00000+0  13423-2 0  9991", "line2": "2 36453  73.9231 152.0605 0070353  55.2951  94.0345 14.52610543844701"}}, "geometry": {"type": "Point", "coordinates": [151.84618175036874, 8.976357903278831]}}, {"type": "Feature", "properties": {"norad_id": 36459, "name": "COSMOS 2251 DEB", "group": "cosmos-2251-debris", "lat": 44.8865564712467, "lon": 160.24862221261967, "alt_km": 737.0411262674852, "timestamp": "2025-12-14T09:36:23.435445+00:00", "meta": {"OBJECT_NAME": "COSMOS 2251 DEB", "OBJECT_ID": "1993-036BBJ", "EPOCH": "2025-12-08T08:14:17.711520", "MEAN_MOTION": 14.26367403, "ECCENTRICITY": 0.01135417, "INCLINATION": 74.048, "RA_OF_ASC_NODE": 7.7381, "ARG_OF_PERICENTER": 104.7075, "MEAN_ANOMALY": 256.669, "EPHEMERIS_TYPE": 0, "CLASSIFICATION_TYPE": "U", "NORAD_CAT_ID": 36459, "ELEMENT_SET_NO": 999, "REV_AT_EPOCH": 7819, "BSTAR": 0.0018203568, "MEAN_MOTION_DOT": 4.661e-05, "MEAN_MOTION_DDOT": 0}, "tle": {"line1": "1 36459U 93036BBJ 25342.34326055  .00004661  00000+0  18204-2 0  9995", "line2": "2 36459  74.0480   7.7381 0113541 104.7075 256.6690 14.26367403 78192"}}, "geometry": {"type": "Point", "coordinates": [160.24862221261967, 44.8865564712467]}}, {"type": "Feature", "properties": {"norad_id": 36470, "name": "COSMOS 2251 DEB", "group": "cosmos-2251-debris", "lat": -58.2398803668959, "lon": -136.9693745629883, "alt_km": 562.420192722896, "timestamp": "2025-12-14T09:36:23.435455+00:00", "meta": {"OBJECT_NAME": "COSMOS 2251 DEB", "OBJECT_ID": "1993-036BBV", "EPOCH": "2025-12-12T11:41:31.430976", "MEAN_MOTION": 15.07283249, "ECCENTRICITY": 0.00224171, "INCLINATION": 73.8441, "RA_OF_ASC_NODE": 254.9305, "ARG_OF_PERICENTER": 83.5922, "MEAN_ANOMALY": 276.782, "EPHEMERIS_TYPE": 0, "CLASSIFICATION_TYPE": "U", "NORAD_CAT_ID": 36470, "ELEMENT_SET_NO": 999, "REV_AT_EPOCH": 66090, "BSTAR": 0.0051835663, "MEAN_MOTION_DOT": 0.00079518, "MEAN_MOTION_DDOT": 0}, "tle": {"line1": "1 36470U 93036BBV 25346.48716934  .00079518  00000+0  51836-2 0  9997", "line2": "2 36470  73.8441 254.9305 0022417  83.5922 276.7820 15.07283249660906"}}, "geometry": {"type": "Point", "coordinates": [-136.9693745629883, -58.2398803668959]}}, {"type": "Feature", "properties": {"norad_id": 36528, "name": "COSMOS 2251 DEB", "group": "cosmos-2251-debris", "lat": -73.93825115471651, "lon": 57.62412478614114, "alt_km": 785.6911903594737, "timestamp": "2025-12-14T09:36:23.435477+00:00", "meta": {"OBJECT_NAME": "COSMOS 2251 DEB", "OBJECT_ID": "1993-036BCN", "EPOCH": "2025-12-12T19:25:25.344768", "MEAN_MOTION": 14.30644873, "ECCENTRICITY": 0.00849129, "INCLINATION": 74.0164, "RA_OF_ASC_NODE": 145.0919, "ARG_OF_PERICENTER": 194.5132, "MEAN_ANOMALY": 165.3579, "EPHEMERIS_TYPE": 0, "CLASSIFICATION_TYPE": "U", "NORAD_CAT_ID": 36528, "ELEMENT_SET_NO": 999, "REV_AT_EPOCH": 64428, "BSTAR": 0.0018022815, "MEAN_MOTION_DOT": 4.875e-05, "MEAN_MOTION_DDOT": 0}, "tle": {"line1": "1 36528U 93036BCN 25346.80932112  .00004875  00000+0  18023-2 0  9990", "line2": "2 36528  74.0164 145.0919 0084912 194.5132 165.3579 14.30644873644286"}}, "geometry": {"type": "Point", "coordinates": [57.62412478614114, -73.93825115471651]}}, {"type": "Feature", "properties": {"norad_id": 36533, "name": "COSMOS 2251 DEB", "group": "cosmos-2251-debris", "lat": -2.425351776425676, "lon": -67.59837884503555, "alt_km": 721.7357746798461, "timestamp": "2025-12-14T09:36:23.435488+00:00", "meta": {"OBJECT_NAME": "COSMOS 2251 DEB", "OBJECT_ID": "1993-036BCT", "EPOCH": "2025-12-12T08:44:14.485056", "MEAN_MOTION": 14.49814074, "ECCENTRICITY": 0.00492413, "INCLINATION": 74.0111, "RA_OF_ASC_NODE": 115.5327, "ARG_OF_PERICENTER": 264.7641, "MEAN_ANOMALY": 94.7899, "EPHEMERIS_TYPE": 0, "CLASSIFICATION_TYPE": "U", "NORAD_CAT_ID": 36533, "ELEMENT_SET_NO": 999, "REV_AT_EPOCH": 84479, "BSTAR": 0.00081187814, "MEAN_MOTION_DOT": 3.153e-05, "MEAN_MOTION_DDOT": 0}, "tle": {"line1": "1 36533U 93036BCT 25346.36405654  .00003153  00000+0  81188-3 0  9994", "line2": "2 36533  74.0111 115.5327 0049241 264.7641  94.7899 14.49814074844790"}}, "geometry": {"type": "Point", "coordinates": [-67.59837884503555, -2.425351776425676]}}]}